{"fetched_at":"2026-07-21T17:53:05.430Z","source":"https://celestrak.org/NORAD/elements/gp.php?GROUP=oneweb&FORMAT=JSON","constellation":"oneweb","records":[{"OBJECT_NAME":"ONEWEB-0371","OBJECT_ID":"2021-090U","EPOCH":"2026-07-21T05:33:30.627072","CLASSIFICATION_TYPE":"U","MEAN_MOTION":13.19725432,"ECCENTRICITY":0.00020906,"INCLINATION":87.9191,"RA_OF_ASC_NODE":298.1898,"ARG_OF_PERICENTER":100.6457,"MEAN_ANOMALY":259.4911,"EPHEMERIS_TYPE":0,"NORAD_CAT_ID":49297,"ELEMENT_SET_NO":999,"REV_AT_EPOCH":23094,"BSTAR":0.00021433722,"MEAN_MOTION_DOT":9.9e-7,"MEAN_MOTION_DDOT":0},{"OBJECT_NAME":"ONEWEB-0372","OBJECT_ID":"2021-090V","EPOCH":"2026-07-20T17:20:18.530880","CLASSIFICATION_TYPE":"U","MEAN_MOTION":13.20769759,"ECCENTRICITY":0.00020717,"INCLINATION":87.9182,"RA_OF_ASC_NODE":267.7597,"ARG_OF_PERICENTER":98.8531,"MEAN_ANOMALY":261.2837,"EPHEMERIS_TYPE":0,"NORAD_CAT_ID":49298,"ELEMENT_SET_NO":999,"REV_AT_EPOCH":23426,"BSTAR":-0.000286605,"MEAN_MOTION_DOT":-0.00000104,"MEAN_MOTION_DDOT":0},{"OBJECT_NAME":"ONEWEB-0373","OBJECT_ID":"2021-090W","EPOCH":"2026-07-21T03:02:18.475008","CLASSIFICATION_TYPE":"U","MEAN_MOTION":13.2077008,"ECCENTRICITY":0.00020464,"INCLINATION":87.9174,"RA_OF_ASC_NODE":267.6782,"ARG_OF_PERICENTER":94.8728,"MEAN_ANOMALY":265.2639,"EPHEMERIS_TYPE":0,"NORAD_CAT_ID":49299,"ELEMENT_SET_NO":999,"REV_AT_EPOCH":23550,"BSTAR":0.00010263269,"MEAN_MOTION_DOT":5.5e-7,"MEAN_MOTION_DDOT":0},{"OBJECT_NAME":"ONEWEB-0374","OBJECT_ID":"2021-090X","EPOCH":"2026-07-20T18:18:24.951456","CLASSIFICATION_TYPE":"U","MEAN_MOTION":13.14503131,"ECCENTRICITY":0.00014712,"INCLINATION":87.8967,"RA_OF_ASC_NODE":283.009,"ARG_OF_PERICENTER":92.5049,"MEAN_ANOMALY":267.6249,"EPHEMERIS_TYPE":0,"NORAD_CAT_ID":49300,"ELEMENT_SET_NO":999,"REV_AT_EPOCH":23197,"BSTAR":0.0003507221,"MEAN_MOTION_DOT":0.00000143,"MEAN_MOTION_DDOT":0},{"OBJECT_NAME":"ONEWEB-0375","OBJECT_ID":"2021-090Y","EPOCH":"2026-07-21T02:45:20.449728","CLASSIFICATION_TYPE":"U","MEAN_MOTION":13.20770464,"ECCENTRICITY":0.00015622,"INCLINATION":87.9179,"RA_OF_ASC_NODE":267.6731,"ARG_OF_PERICENTER":87.3422,"MEAN_ANOMALY":272.789,"EPHEMERIS_TYPE":0,"NORAD_CAT_ID":49301,"ELEMENT_SET_NO":999,"REV_AT_EPOCH":23500,"BSTAR":0.000017457398,"MEAN_MOTION_DOT":2e-7,"MEAN_MOTION_DDOT":0},{"OBJECT_NAME":"ONEWEB-0376","OBJECT_ID":"2021-090Z","EPOCH":"2026-07-21T00:03:41.801760","CLASSIFICATION_TYPE":"U","MEAN_MOTION":13.19723057,"ECCENTRICITY":0.00021156,"INCLINATION":87.9191,"RA_OF_ASC_NODE":298.2352,"ARG_OF_PERICENTER":104.9947,"MEAN_ANOMALY":255.142,"EPHEMERIS_TYPE":0,"NORAD_CAT_ID":49302,"ELEMENT_SET_NO":999,"REV_AT_EPOCH":23091,"BSTAR":0.000038057247,"MEAN_MOTION_DOT":2.8e-7,"MEAN_MOTION_DDOT":0},{"OBJECT_NAME":"ONEWEB-0377","OBJECT_ID":"2021-090AA","EPOCH":"2026-07-20T17:20:41.151264","CLASSIFICATION_TYPE":"U","MEAN_MOTION":13.20769747,"ECCENTRICITY":0.00017349,"INCLINATION":87.918,"RA_OF_ASC_NODE":267.7535,"ARG_OF_PERICENTER":95.4241,"MEAN_ANOMALY":264.709,"EPHEMERIS_TYPE":0,"NORAD_CAT_ID":49303,"ELEMENT_SET_NO":999,"REV_AT_EPOCH":23494,"BSTAR":-0.000075610292,"MEAN_MOTION_DOT":-1.8e-7,"MEAN_MOTION_DDOT":0},{"OBJECT_NAME":"ONEWEB-0378","OBJECT_ID":"2021-090AB","EPOCH":"2026-07-21T04:44:20.761728","CLASSIFICATION_TYPE":"U","MEAN_MOTION":13.20772172,"ECCENTRICITY":0.00019175,"INCLINATION":87.9173,"RA_OF_ASC_NODE":267.662,"ARG_OF_PERICENTER":98.2727,"MEAN_ANOMALY":261.8624,"EPHEMERIS_TYPE":0,"NORAD_CAT_ID":49304,"ELEMENT_SET_NO":999,"REV_AT_EPOCH":23427,"BSTAR":0.00011421169,"MEAN_MOTION_DOT":5.9e-7,"MEAN_MOTION_DDOT":0},{"OBJECT_NAME":"ONEWEB-0379","OBJECT_ID":"2021-090AC","EPOCH":"2026-07-21T03:19:37.581888","CLASSIFICATION_TYPE":"U","MEAN_MOTION":13.1450233,"ECCENTRICITY":0.00018865,"INCLINATION":87.8965,"RA_OF_ASC_NODE":282.9441,"ARG_OF_PERICENTER":99.9079,"MEAN_ANOMALY":260.2264,"EPHEMERIS_TYPE":0,"NORAD_CAT_ID":49305,"ELEMENT_SET_NO":999,"REV_AT_EPOCH":23202,"BSTAR":0.00058009404,"MEAN_MOTION_DOT":0.00000228,"MEAN_MOTION_DDOT":0},{"OBJECT_NAME":"ONEWEB-0380","OBJECT_ID":"2021-090AD","EPOCH":"2026-07-21T05:26:40.882848","CLASSIFICATION_TYPE":"U","MEAN_MOTION":13.19727084,"ECCENTRICITY":0.00019431,"INCLINATION":87.9183,"RA_OF_ASC_NODE":298.1936,"ARG_OF_PERICENTER":94.965,"MEAN_ANOMALY":265.1704,"EPHEMERIS_TYPE":0,"NORAD_CAT_ID":49306,"ELEMENT_SET_NO":999,"REV_AT_EPOCH":23091,"BSTAR":0.00026142435,"MEAN_MOTION_DOT":0.00000118,"MEAN_MOTION_DDOT":0},{"OBJECT_NAME":"ONEWEB-0381","OBJECT_ID":"2021-090AE","EPOCH":"2026-07-21T02:21:05.582592","CLASSIFICATION_TYPE":"U","MEAN_MOTION":13.20769957,"ECCENTRICITY":0.00017874,"INCLINATION":87.9181,"RA_OF_ASC_NODE":267.6834,"ARG_OF_PERICENTER":94.6558,"MEAN_ANOMALY":265.4779,"EPHEMERIS_TYPE":0,"NORAD_CAT_ID":49307,"ELEMENT_SET_NO":999,"REV_AT_EPOCH":23430,"BSTAR":0.000023493883,"MEAN_MOTION_DOT":2.3e-7,"MEAN_MOTION_DDOT":0},{"OBJECT_NAME":"ONEWEB-0382","OBJECT_ID":"2021-090AF","EPOCH":"2026-07-21T03:50:48.626592","CLASSIFICATION_TYPE":"U","MEAN_MOTION":13.20772145,"ECCENTRICITY":0.00017235,"INCLINATION":87.9182,"RA_OF_ASC_NODE":267.6648,"ARG_OF_PERICENTER":98.7631,"MEAN_ANOMALY":261.3697,"EPHEMERIS_TYPE":0,"NORAD_CAT_ID":49308,"ELEMENT_SET_NO":999,"REV_AT_EPOCH":23430,"BSTAR":0.000072343539,"MEAN_MOTION_DOT":4.2e-7,"MEAN_MOTION_DDOT":0},{"OBJECT_NAME":"ONEWEB-0383","OBJECT_ID":"2021-090AG","EPOCH":"2026-07-21T03:10:29.338464","CLASSIFICATION_TYPE":"U","MEAN_MOTION":13.14502902,"ECCENTRICITY":0.00018836,"INCLINATION":87.8966,"RA_OF_ASC_NODE":282.9377,"ARG_OF_PERICENTER":102.398,"MEAN_ANOMALY":257.736,"EPHEMERIS_TYPE":0,"NORAD_CAT_ID":49309,"ELEMENT_SET_NO":999,"REV_AT_EPOCH":23205,"BSTAR":0.00047234503,"MEAN_MOTION_DOT":0.00000188,"MEAN_MOTION_DDOT":0},{"OBJECT_NAME":"ONEWEB-0384","OBJECT_ID":"2021-090AH","EPOCH":"2026-07-21T03:32:53.958336","CLASSIFICATION_TYPE":"U","MEAN_MOTION":13.20814684,"ECCENTRICITY":0.00015839,"INCLINATION":87.9177,"RA_OF_ASC_NODE":267.7109,"ARG_OF_PERICENTER":102.4502,"MEAN_ANOMALY":257.6809,"EPHEMERIS_TYPE":0,"NORAD_CAT_ID":49310,"ELEMENT_SET_NO":999,"REV_AT_EPOCH":23431,"BSTAR":0.000013875404,"MEAN_MOTION_DOT":1.9e-7,"MEAN_MOTION_DDOT":0},{"OBJECT_NAME":"ONEWEB-0385","OBJECT_ID":"2021-090AJ","EPOCH":"2026-07-21T03:41:06.306144","CLASSIFICATION_TYPE":"U","MEAN_MOTION":13.20771241,"ECCENTRICITY":0.00018609,"INCLINATION":87.9178,"RA_OF_ASC_NODE":267.6716,"ARG_OF_PERICENTER":96.7746,"MEAN_ANOMALY":263.3599,"EPHEMERIS_TYPE":0,"NORAD_CAT_ID":49311,"ELEMENT_SET_NO":999,"REV_AT_EPOCH":23428,"BSTAR":-0.000046271584,"MEAN_MOTION_DOT":-6e-8,"MEAN_MOTION_DDOT":0},{"OBJECT_NAME":"ONEWEB-0386","OBJECT_ID":"2021-090AK","EPOCH":"2026-07-21T04:05:19.968864","CLASSIFICATION_TYPE":"U","MEAN_MOTION":13.20769726,"ECCENTRICITY":0.00017305,"INCLINATION":87.9188,"RA_OF_ASC_NODE":267.6611,"ARG_OF_PERICENTER":96.3299,"MEAN_ANOMALY":263.8032,"EPHEMERIS_TYPE":0,"NORAD_CAT_ID":49312,"ELEMENT_SET_NO":999,"REV_AT_EPOCH":23430,"BSTAR":-0.000037789752,"MEAN_MOTION_DOT":-2e-8,"MEAN_MOTION_DDOT":0}]}
